ONEWEB-0528             
1 54643U 22166B   23308.58619802 -.00000020  00000+0 -80901-4 0  9999
2 54643  87.9230  74.2108 0001551  91.7385 268.3927 13.21828771 45309
ONEWEB-0539             
1 54644U 22166C   23308.62247814  .00000042  00000+0  70813-4 0  9998
2 54644  87.9230  74.2031 0001808  93.2600 266.8741 13.21828670 45302
ONEWEB-0540             
1 54645U 22166D   23308.38985434  .00000110  00000+0  23557-3 0  9997
2 54645  87.9234  74.2754 0001875  90.4947 269.6402 13.21826639 45269
ONEWEB-0542             
1 54646U 22166E   23308.40484354  .00000092  00000+0  19173-3 0  9994
2 54646  87.9229  74.2471 0002246  98.2080 261.9309 13.21827012 45275
ONEWEB-0545             
1 54647U 22166F   23308.82590960 -.00000044  00000+0 -13814-3 0  9997
2 54647  87.9231  74.2036 0002114  87.3508 272.7868 13.21826048 45766
ONEWEB-0580             
1 54648U 22166G   23308.42062684  .00000056  00000+0  10392-3 0  9990
2 54648  87.9228  74.2389 0002288  98.6320 261.5074 13.21826852 45288
ONEWEB-0582             
1 54649U 22166H   23308.61458776  .00000038  00000+0  59465-4 0  9998
2 54649  87.9231  74.2403 0001732  86.0031 274.1301 13.21826700 45288
ONEWEB-0583             
1 54650U 22166J   23308.77700887  .00000034  00000+0  51424-4 0  9993
2 54650  87.9230  74.2141 0001214  97.5302 262.5970 13.21827869 45797
